SPACEMOBILE-004         
1 61049U 24163E   26197.34451693  .00012194  00000+0  56003-3 0  9999
2 61049  52.9692 174.8353 0005984 230.9141 129.1322 15.20779499102200
CZ-8A R/B               
1 66004U 25231K   26198.93663135 -.00000050  00000+0  40829-4 0  9993
2 66004  50.0037 268.4955 0116552 332.2675  27.2057 14.30162623 39340
SZ-21 MODULE            
1 66515U 25246C   26198.78896645  .00032913  00000+0  18070-3 0  9997
2 66515  41.4716 116.3539 0008762 238.0565 121.9429 15.78993742 38574
SPACEMOBILE-006         
1 67232U 25309A   26198.38261852  .00001156  00000+0  70391-4 0  9996
2 67232  52.9933 193.3130 0009874 222.5585 137.4644 15.18659721 31187
SPACEMOBILE-008         
1 69589U 26139A   26198.79545463  .00000311  00000+0  34487-4 0  9991
2 69589  52.9950 123.6019 0005151  62.6150 297.5364 15.12804081  4610
SPACEMOBILE-009         
1 69590U 26139B   26198.92974044  .00000346  00000+0  36570-4 0  9992
2 69590  52.9941 123.0096 0005408  59.0065 301.1457 15.12697715  4632
SPACEMOBILE-010         
1 69591U 26139C   26198.93315104  .00001132  00000+0  81267-4 0  9997
2 69591  52.9947 123.0339 0005386  51.6637 308.4837 15.12535224  4646
